STARLINK-2022           
1 47643U 21012Z   23363.41446277  .00009599  00000+0  66236-3 0  9999
2 47643  53.0555  48.6878 0001424 104.7365 255.3781 15.06403900159494
